[{"OBJECT_NAME":"STARLINK-36957","OBJECT_ID":"2026-039D","EPOCH":"2026-03-09T22:00:01.999584","MEAN_MOTION":15.82934137,"ECCENTRICITY":0.00016393,"INCLINATION":42.9988,"RA_OF_ASC_NODE":53.5138,"ARG_OF_PERICENTER":259.2068,"MEAN_ANOMALY":12.6371,"EPHEMERIS_TYPE":0,"CLASSIFICATION_TYPE":"U","NORAD_CAT_ID":67989,"ELEMENT_SET_NO":999,"REV_AT_EPOCH":291,"BSTAR":-0.0060413945,"MEAN_MOTION_DOT":-0.01183939,"MEAN_MOTION_DDOT":0},{"OBJECT_NAME":"H-2A R\/B","OBJECT_ID":"2024-176B","EPOCH":"2026-03-09T21:03:59.315040","MEAN_MOTION":15.71096114,"ECCENTRICITY":0.00080006,"INCLINATION":97.2628,"RA_OF_ASC_NODE":207.174,"ARG_OF_PERICENTER":279.669,"MEAN_ANOMALY":80.367,"EPHEMERIS_TYPE":0,"CLASSIFICATION_TYPE":"U","NORAD_CAT_ID":61440,"ELEMENT_SET_NO":999,"REV_AT_EPOCH":8169,"BSTAR":0.00086786138,"MEAN_MOTION_DOT":0.00110274,"MEAN_MOTION_DDOT":0}]
